OBJECT_NAME,OBJECT_ID,EPOCH,MEAN_MOTION,ECCENTRICITY,INCLINATION,RA_OF_ASC_NODE,ARG_OF_PERICENTER,MEAN_ANOMALY,EPHEMERIS_TYPE,CLASSIFICATION_TYPE,NORAD_CAT_ID,ELEMENT_SET_NO,REV_AT_EPOCH,BSTAR,MEAN_MOTION_DOT,MEAN_MOTION_DDOT
LEMUR-1,2014-033AL,2026-07-14T21:57:09.917568,14.85336384,.00478024,97.7909,345.1100,348.8746,11.1407,0,U,40044,999,64958,.9573447E-4,.784E-5,0
LEMUR-2-GREENBERG,2017-042N,2026-07-14T11:01:08.367168,15.32137916,.00071946,97.3823,15.9753,263.1794,96.8630,0,U,42837,999,49256,.32148482E-3,.9907E-4,0
LEMUR-2-ANDIS,2017-042P,2026-07-14T17:59:16.108800,15.35912431,.00071837,97.3675,16.5481,259.4911,100.5524,0,U,42838,999,49268,.3538359E-3,.12302E-3,0
LEMUR-2-MONSON,2017-042Q,2026-07-14T11:05:29.758272,15.28740925,.00052931,97.4085,15.9085,249.0733,110.9940,0,U,42839,999,49233,.28794809E-3,.7974E-4,0
LEMUR-2-FURIAUS,2017-042R,2026-07-14T22:17:49.056864,15.31125457,.00060642,97.3766,14.3354,331.3156,28.7751,0,U,42840,999,49245,.32916749E-3,.9828E-4,0
LEMUR-2-PETERG,2017-042S,2026-07-14T11:44:40.228800,15.35013227,.00032447,97.3988,20.5866,222.8450,137.2541,0,U,42841,999,49262,.33252832E-3,.1122E-3,0
LEMUR-2-DEMBITZ,2017-042T,2026-07-14T22:46:14.439936,15.31105660,.00050535,97.3822,17.4000,275.9305,84.1360,0,U,42842,999,49259,.30973791E-3,.9235E-4,0
LEMUR-2-ZACHARY,2017-042W,2026-07-14T11:19:58.806624,15.52670272,.00025074,97.3570,27.7354,253.1238,106.9740,0,U,42845,999,49343,.51719306E-3,.31854E-3,0
LEMUR-2-AMANDA-SVANTE,2021-034B,2026-07-14T20:44:48.577632,15.35946605,.00046212,97.5754,274.9119,144.0064,216.1491,0,U,48269,999,28530,.54550939E-3,.19036E-3,0
LEMUR-2-SPECIAL-K,2021-034F,2026-07-14T18:16:40.633824,15.74566415,.00063296,97.5639,284.8161,214.5828,145.5025,0,U,48273,999,28601,.11528817E-2,.170832E-2,0
LEMUR-2-EMBRIONOVIS,2023-084AQ,2026-07-14T09:35:04.303968,15.38217107,.00082461,97.6319,340.6609,209.4980,150.5800,0,U,56970,999,17186,.22445854E-3,.8371E-4,0
LEMUR-2-DEVERILL-M-T,2023-100F,2026-07-14T15:30:55.870272,15.41075608,.00046885,99.4454,242.3642,299.5380,60.5392,0,U,57391,999,16547,.37507303E-3,.15402E-3,0
LEMUR-2-BASS,2023-174D,2026-07-14T18:17:24.782496,15.43985516,.00076953,97.3850,280.8760,79.6377,280.5738,0,U,58259,999,14961,.22693332E-3,.1026E-3,0
LEMUR-2-JK0903EM1407,2023-174CJ,2026-07-14T19:07:21.753120,15.53054759,.00036527,97.3927,287.0724,35.1990,324.9504,0,U,58336,999,15001,.27591096E-3,.17155E-3,0
LEMUR-2-MJR092620,2023-174CN,2026-07-14T19:22:51.089664,15.45853766,.00053293,97.3981,286.3639,32.0286,328.1286,0,U,58340,999,14991,.23634604E-3,.11388E-3,0
LEMUR-2-NIMBUS2000,2024-022A,2026-07-14T13:18:09.606240,15.41099325,.0008815,97.4080,45.9166,30.9199,329.2565,0,U,58899,999,13648,.3123E-3,.12856E-3,0
LEMUR-2-VALHALLA,2024-022B,2026-07-14T21:12:28.356192,15.40481564,.00092384,97.4076,46.2208,25.2349,334.9347,0,U,58900,999,13653,.225276E-3,.9059E-4,0
LEMUR-2-CAEL,2024-022E,2026-07-14T13:04:51.796416,15.41842130,.0007196,97.4059,46.8629,12.0765,348.0653,0,U,58903,999,13655,.24854E-3,.10462E-3,0
LEMUR-2-JOHNNYTRUONG,2024-043BA,2026-07-14T21:32:40.944768,15.62544741,.0004103,97.5390,349.3635,94.8914,265.2812,0,U,59146,999,13236,.3107967E-3,.27619E-3,0
LEMUR-2-TOMATOKECHUP,2024-149D,2026-07-14T18:56:00.133152,15.36577548,.00032762,97.3802,277.9151,123.0266,237.1294,0,U,60471,999,10640,.17737784E-3,.6252E-4,0
LEMUR-2-STELLA,2024-149BT,2026-07-14T19:25:05.152224,15.12366864,.00012381,97.6739,278.3948,117.0060,243.1297,0,U,60533,999,10467,.32835338E-3,.5629E-4,0
LEMUR-2-MARHISYAM,2024-149BW,2026-07-14T19:11:46.847328,15.11772815,.00025357,97.6884,278.8613,69.4744,290.6758,0,U,60536,999,10465,.32155766E-3,.5421E-4,0
LEMUR-2-AHMED-ASRAR,2024-149DN,2026-07-14T19:21:43.600032,15.13301229,.00011348,97.7008,281.0702,205.8662,154.2512,0,U,60576,999,10474,.33683509E-3,.593E-4,0
LEMUR-2-LLOYD,2024-149DP,2026-07-14T22:47:42.190368,15.09748859,.00048058,97.6750,277.1020,73.1029,287.0726,0,U,60577,999,10458,.32900214E-3,.5245E-4,0
LEMUR-2-SQUIRRELCOMM,2024-149DQ,2026-07-14T17:44:00.224736,15.07444509,.00040921,97.6714,276.5676,330.3631,29.7364,0,U,60578,999,10455,.16827449E-3,.2486E-4,0
LEMUR-2-SIERRINI,2024-149DR,2026-07-14T18:17:57.250752,15.11508075,.00064905,97.6848,278.4856,91.8532,268.3442,0,U,60579,999,10462,.36694428E-3,.6152E-4,0
LEMUR-2-WILSON,2025-009CP,2026-07-14T17:36:06.814944,14.95275839,.00020495,97.7021,273.7153,327.3047,32.8047,0,U,62694,999,8147,.66876169E-4,.68E-5,0
LEMUR-2-STAR-FOX,2025-009CR,2026-07-14T17:27:24.056928,15.02837553,.00022908,97.6911,277.1384,44.2985,315.8423,0,U,62696,999,8169,.26190995E-3,.3448E-4,0
LEMUR-2-ARIANNA,2025-009CU,2026-07-14T22:12:49.742208,15.02840885,.00025542,97.6853,277.0874,51.0319,309.1133,0,U,62699,999,8172,.28634331E-3,.3776E-4,0
LEMUR-2-ALISIA,2025-009DB,2026-07-14T18:21:24.558912,15.03171742,.00042214,97.6972,277.7525,129.6014,230.5584,0,U,62706,999,10430,.3313407E-3,.4418E-4,0
